[{"OBJECT_NAME":"OBJECT Y","OBJECT_ID":"2023-085Y","EPOCH":"2026-03-09T22:38:54.992256","MEAN_MOTION":15.32500153,"ECCENTRICITY":0.00063298,"INCLINATION":97.4849,"RA_OF_ASC_NODE":180.8653,"ARG_OF_PERICENTER":67.4431,"MEAN_ANOMALY":292.748,"EPHEMERIS_TYPE":0,"CLASSIFICATION_TYPE":"U","NORAD_CAT_ID":57026,"ELEMENT_SET_NO":999,"REV_AT_EPOCH":15160,"BSTAR":0.00065512761,"MEAN_MOTION_DOT":0.00020524,"MEAN_MOTION_DDOT":0},{"OBJECT_NAME":"STARLINK-33580","OBJECT_ID":"2025-087Q","EPOCH":"2026-03-09T16:20:13.175520","MEAN_MOTION":15.30197084,"ECCENTRICITY":0.00011082,"INCLINATION":53.1609,"RA_OF_ASC_NODE":219.9243,"ARG_OF_PERICENTER":45.9238,"MEAN_ANOMALY":314.1853,"EPHEMERIS_TYPE":0,"CLASSIFICATION_TYPE":"U","NORAD_CAT_ID":63711,"ELEMENT_SET_NO":999,"REV_AT_EPOCH":4919,"BSTAR":0.0010311435,"MEAN_MOTION_DOT":0.00030302,"MEAN_MOTION_DDOT":0}]
